CUTE-1 (CO-55)          
1 27844U 03031E   26169.72312841  .00000216  00000+0  11222-3 0  9993
2 27844  98.6736 178.2627 0009643 173.5600 186.5705 14.24336519191891
CUBESAT XI-IV (CO-57)   
1 27848U 03031J   26168.93924090  .00000186  00000+0  10079-3 0  9999
2 27848  98.6765 177.2007 0009073 194.7196 165.3719 14.23621196191482
CUBESAT XI-V            
1 28895U 05043F   26168.94617719  .00001113  00000+0  18286-3 0  9994
2 28895  98.2987 324.5839 0013704 198.2082 161.8635 14.72633352101868
CUTE-1.7+APD II (CO-65) 
1 32785U 08021C   26169.70716628  .00004368  00000+0  27673-3 0  9995
2 32785  97.8275 151.1573 0009595  34.0332 326.1510 15.09462529985420
CANX-2                  
1 32790U 08021H   26168.88637359  .00003690  00000+0  25995-3 0  9994
2 32790  97.8640 148.6774 0011418  48.7586 311.4622 15.05623552984911
SEEDS II (CO-66)        
1 32791U 08021J   26169.44123302  .00014056  00000+0  44622-3 0  9992
2 32791  97.7517 167.3987 0000890 357.5135   2.6101 15.32786684987483
SWISSCUBE               
1 35932U 09051B   26169.74226071  .00000745  00000+0  15677-3 0  9994
2 35932  98.4034  77.6577 0006063 197.6452 162.4539 14.62484142889382
BEESAT-1                
1 35933U 09051C   26169.68405162  .00000636  00000+0  13739-3 0  9994
2 35933  98.3962  77.2309 0004309 211.2918 148.8026 14.61722602889409
ITUPSAT1                
1 35935U 09051E   26169.19666220  .00000591  00000+0  13197-3 0  9994
2 35935  98.4047  75.9267 0006285 230.1057 129.9590 14.60442029888881
TISAT 1                 
1 36799U 10035E   26169.29299463  .00015546  00000+0  50955-3 0  9998
2 36799  98.0713 115.9399 0001545 166.4985 193.6296 15.31742601867877
AEROCUBE 4.5A           
1 38767U 12048K   26169.85285758  .00451840  92161-4  97832-3 0  9995
2 38767  64.6229  20.7738 0019296 228.7327 131.2175 15.97743210372929
STRAND-1                
1 39090U 13009E   26169.72693088  .00000194  00000+0  79602-4 0  9992
2 39090  98.3923 349.9234 0007804 220.1282 139.9329 14.37163972697288
BRITE-AUSTRIA           
1 39091U 13009F   26169.74047145  .00000124  00000+0  56763-4 0  9998
2 39091  98.3995 349.1376 0009202 231.3134 128.7230 14.36542636697274
NEE-01 PEGASO           
1 39151U 13018B   26169.33746021  .00002315  00000+0  22456-3 0  9994
2 39151  98.1225 313.5252 0013220 155.6183 204.5663 14.93664438710873
POPACS 2                
1 39269U 13055E   26169.65274734  .00012134  00000+0  20498-3 0  9991
2 39269  80.9906 142.5145 0416784 189.0649 170.2883 14.91243644663431
POPACS 3                
1 39270U 13055F   26169.42500432  .00007680  00000+0  18030-3 0  9994
2 39270  81.0003 227.8457 0552049  66.2304 299.5770 14.56141061638731
ZACUBE-1 (TSHEPISOSAT)  
1 39417U 13066B   26169.34046199  .00002374  00000+0  18681-3 0  9992
2 39417  97.8077 131.6833 0040949 243.7163 115.9851 15.01194004680909
WNISAT-1                
1 39423U 13066H   26169.65224834  .00000730  00000+0  14172-3 0  9992
2 39423  97.7204 318.7045 0162048 226.9440 131.8099 14.58064468666946
TRITON-1                
1 39427U 13066M   26169.84884625  .00001741  00000+0  21334-3 0  9998
2 39427  97.8249  79.6185 0088552 228.4240 130.9359 14.81711399674339
GOMX-1                  
1 39430U 13066Q   26169.82020104  .00001688  00000+0  25762-3 0  9993
2 39430  97.6474  10.1797 0130146  72.3376 289.1992 14.69466264670153
CUBEBUG-2 (LO-74)       
1 39440U 13066AA  26169.80481595  .00003935  00000+0  36475-3 0  9997
2 39440  97.8910 118.7896 0058293  23.8630 336.5272 14.93773469677231
NEE-02 KRYSAOR          
1 39441U 13066AB  26169.75727765  .00001818  00000+0  20289-3 0  9998
2 39441  97.8893 108.9606 0067597  65.1877 295.6349 14.86623653676433
FUNCUBE-1 (AO-73)       
1 39444U 13066AE  26169.64748372  .00004840  00000+0  30180-3 0  9995
2 39444  97.8281 141.1237 0035755 195.6832 164.3291 15.09504260679885
UWE-3                   
1 39446U 13066AG  26169.61929382  .00003597  00000+0  31072-3 0  9995
2 39446  97.8699 125.7026 0047372 316.3669  43.3811 14.97034048677792
BRITE-CA1 (TORONTO)     
1 40020U 14033L   26169.60050782  .00000571  00000+0  93677-4 0  9997
2 40020  97.9742 298.5023 0077213 272.4058  86.8311 14.72678402642429
DUCHIFAT-1              
1 40021U 14033M   26169.68438844  .00088318  00000+0  89916-3 0  9990
2 40021  98.0447 229.0553 0002814 113.8680 246.2872 15.64848252655988
NANOSATC-BR1            
1 40024U 14033Q   26169.83886972  .00012819  00000+0  42393-3 0  9990
2 40024  98.0716 202.3732 0004556 158.4480 201.6952 15.31498913654231
QB50P1                  
1 40025U 14033R   26169.60000341  .00006188  00000+0  30544-3 0  9991
2 40025  98.0962 180.8450 0007983 209.9659 150.1117 15.18277268653243
QB50P2                  
1 40032U 14033Y   26169.75111845  .00005755  00000+0  31045-3 0  9993
2 40032  98.0752 166.7286 0008168 158.5768 201.5806 15.15174163652909
PERSEUS-M2              
1 40037U 14033AD  26169.80274131  .00001293  00000+0  12216-3 0  9994
2 40037  97.9966 120.3763 0010513 298.0582  61.9575 14.95512774651020
