OBJECT_NAME,OBJECT_ID,EPOCH,MEAN_MOTION,ECCENTRICITY,INCLINATION,RA_OF_ASC_NODE,ARG_OF_PERICENTER,MEAN_ANOMALY,EPHEMERIS_TYPE,CLASSIFICATION_TYPE,NORAD_CAT_ID,ELEMENT_SET_NO,REV_AT_EPOCH,BSTAR,MEAN_MOTION_DOT,MEAN_MOTION_DDOT
CUTE-1 (CO-55),2003-031E,2026-06-18T17:21:18.294624,14.24336519,.0009643,98.6736,178.2627,173.5600,186.5705,0,U,27844,999,19189,.11222E-3,.216E-5,0
CUBESAT XI-IV (CO-57),2003-031J,2026-06-17T22:32:30.413760,14.23621196,.0009073,98.6765,177.2007,194.7196,165.3719,0,U,27848,999,19148,.10079477E-3,.186E-5,0
CUBESAT XI-V,2005-043F,2026-06-17T22:42:29.709216,14.72633352,.00137043,98.2987,324.5839,198.2082,161.8635,0,U,28895,999,10186,.18286399E-3,.1113E-4,0
CUTE-1.7+APD II (CO-65),2008-021C,2026-06-18T16:58:19.166592,15.09462529,.0009595,97.8275,151.1573,34.0332,326.1510,0,U,32785,999,98542,.27673E-3,.4368E-4,0
CANX-2,2008-021H,2026-06-17T21:16:22.678176,15.05623552,.00114189,97.8640,148.6774,48.7586,311.4622,0,U,32790,999,98491,.25994567E-3,.369E-4,0
SEEDS II (CO-66),2008-021J,2026-06-18T10:35:22.532928,15.32786684,.000089,97.7517,167.3987,357.5135,2.6101,0,U,32791,999,98748,.44622E-3,.14056E-3,0
SWISSCUBE,2009-051B,2026-06-18T17:48:51.325344,14.62484142,.0006063,98.4034,77.6577,197.6452,162.4539,0,U,35932,999,88938,.15677E-3,.745E-5,0
BEESAT-1,2009-051C,2026-06-18T16:25:02.059968,14.61722602,.0004309,98.3962,77.2309,211.2918,148.8026,0,U,35933,999,88940,.13739E-3,.636E-5,0
ITUPSAT1,2009-051E,2026-06-18T04:43:11.614080,14.60442029,.00062858,98.4047,75.9267,230.1057,129.9590,0,U,35935,999,88888,.13197175E-3,.591E-5,0
TISAT 1,2010-035E,2026-06-18T07:01:54.736032,15.31742601,.0001545,98.0713,115.9399,166.4985,193.6296,0,U,36799,999,86787,.50955E-3,.15546E-3,0
AEROCUBE 4.5A,2012-048K,2026-06-18T20:28:06.894912,15.97743210,.0019296,64.6229,20.7738,228.7327,131.2175,0,U,38767,999,37292,.97832E-3,.45184E-2,.92161E-4
STRAND-1,2013-009E,2026-06-18T17:26:46.828032,14.37163972,.0007804,98.3923,349.9234,220.1282,139.9329,0,U,39090,999,69728,.79602E-4,.194E-5,0
BRITE-AUSTRIA,2013-009F,2026-06-18T17:46:16.733280,14.36542636,.0009202,98.3995,349.1376,231.3134,128.7230,0,U,39091,999,69727,.56763E-4,.124E-5,0
NEE-01 PEGASO,2013-018B,2026-06-18T08:05:56.562144,14.93664438,.001322,98.1225,313.5252,155.6183,204.5663,0,U,39151,999,71087,.22456E-3,.2315E-4,0
POPACS 2,2013-055E,2026-06-18T15:39:57.370176,14.91243644,.0416784,80.9906,142.5145,189.0649,170.2883,0,U,39269,999,66343,.20498E-3,.12134E-3,0
POPACS 3,2013-055F,2026-06-18T10:12:00.373248,14.56141061,.0552049,81.0003,227.8457,66.2304,299.5770,0,U,39270,999,63873,.1803E-3,.768E-4,0
ZACUBE-1 (TSHEPISOSAT),2013-066B,2026-06-18T08:10:15.915936,15.01194004,.0040949,97.8077,131.6833,243.7163,115.9851,0,U,39417,999,68090,.18681E-3,.2374E-4,0
WNISAT-1,2013-066H,2026-06-18T15:39:14.256576,14.58064468,.0162048,97.7204,318.7045,226.9440,131.8099,0,U,39423,999,66694,.14172E-3,.73E-5,0
TRITON-1,2013-066M,2026-06-18T20:22:20.316000,14.81711399,.0088552,97.8249,79.6185,228.4240,130.9359,0,U,39427,999,67433,.21334E-3,.1741E-4,0
GOMX-1,2013-066Q,2026-06-18T19:41:05.369856,14.69466264,.0130146,97.6474,10.1797,72.3376,289.1992,0,U,39430,999,67015,.25762E-3,.1688E-4,0
CUBEBUG-2 (LO-74),2013-066AA,2026-06-18T19:18:56.098080,14.93773469,.0058293,97.8910,118.7896,23.8630,336.5272,0,U,39440,999,67723,.36475E-3,.3935E-4,0
NEE-02 KRYSAOR,2013-066AB,2026-06-18T18:10:28.788960,14.86623653,.0067597,97.8893,108.9606,65.1877,295.6349,0,U,39441,999,67643,.20289E-3,.1818E-4,0
FUNCUBE-1 (AO-73),2013-066AE,2026-06-18T15:32:22.593408,15.09504260,.0035755,97.8281,141.1237,195.6832,164.3291,0,U,39444,999,67988,.3018E-3,.484E-4,0
UWE-3,2013-066AG,2026-06-18T14:51:46.986048,14.97034048,.0047372,97.8699,125.7026,316.3669,43.3811,0,U,39446,999,67779,.31072E-3,.3597E-4,0
BRITE-CA1 (TORONTO),2014-033L,2026-06-18T14:24:43.875648,14.72678402,.0077213,97.9742,298.5023,272.4058,86.8311,0,U,40020,999,64242,.93677E-4,.571E-5,0
DUCHIFAT-1,2014-033M,2026-06-18T16:25:31.161216,15.64848252,.0002814,98.0447,229.0553,113.8680,246.2872,0,U,40021,999,65598,.89916E-3,.88318E-3,0
NANOSATC-BR1,2014-033Q,2026-06-18T20:07:58.343808,15.31498913,.0004556,98.0716,202.3732,158.4480,201.6952,0,U,40024,999,65423,.42393E-3,.12819E-3,0
QB50P1,2014-033R,2026-06-18T14:24:00.294624,15.18277268,.0007983,98.0962,180.8450,209.9659,150.1117,0,U,40025,999,65324,.30544E-3,.6188E-4,0
QB50P2,2014-033Y,2026-06-18T18:01:36.634080,15.15174163,.0008168,98.0752,166.7286,158.5768,201.5806,0,U,40032,999,65290,.31045E-3,.5755E-4,0
PERSEUS-M2,2014-033AD,2026-06-18T19:15:56.849184,14.95512774,.0010513,97.9966,120.3763,298.0582,61.9575,0,U,40037,999,65102,.12216E-3,.1293E-4,0
